OBJECT_NAME,OBJECT_ID,EPOCH,MEAN_MOTION,ECCENTRICITY,INCLINATION,RA_OF_ASC_NODE,ARG_OF_PERICENTER,MEAN_ANOMALY,EPHEMERIS_TYPE,CLASSIFICATION_TYPE,NORAD_CAT_ID,ELEMENT_SET_NO,REV_AT_EPOCH,BSTAR,MEAN_MOTION_DOT,MEAN_MOTION_DDOT
ALOS-2,2014-029A,2026-07-20T06:42:09.056736,14.79471989,.0001579,97.9226,297.9703,92.0577,268.0816,0,U,39766,999,65647,.24680774E-4,.133E-5,0
KAZEOSAT 2,2014-033A,2026-07-20T07:17:08.167200,14.85503112,.00077769,97.5393,39.1636,200.6805,159.4097,0,U,40010,999,65387,.50768267E-4,.388E-5,0
HODOYOSHI-4,2014-033B,2026-07-20T07:36:42.293088,14.88193330,.00231067,97.5463,24.5428,192.2051,167.8610,0,U,40011,999,65373,.41381096E-4,.331E-5,0
DEIMOS-2,2014-033D,2026-07-20T06:35:11.184000,14.93807009,.00014748,97.5780,74.5942,105.5922,254.5462,0,U,40013,999,64266,.14226249E-3,.1455E-4,0
HODOYOSHI-3,2014-033F,2026-07-20T04:37:23.030688,14.85443217,.00314298,97.6452,2.9119,244.6605,115.1355,0,U,40015,999,65252,.68307367E-4,.541E-5,0
SPOT 7,2014-034A,2026-07-20T07:55:08.256288,14.60982484,.00016275,98.0606,262.9649,95.4986,264.6401,0,U,40053,999,64197,-.12126037E-4,-.105E-5,0
SKYSAT-B,2014-037D,2026-07-20T03:22:59.350080,14.88098478,.00059383,98.3857,161.9901,157.5218,202.6259,0,U,40072,999,65086,.68554193E-4,.569E-5,0
WORLDVIEW-3 (WV-3),2014-048A,2026-07-20T06:00:46.446048,14.85068618,.00016693,97.8552,275.6254,148.6953,211.4362,0,U,40115,999,64681,.54440775E-4,.412E-5,0
GAOFEN-2,2014-049A,2026-07-20T06:49:08.088960,14.80932344,.00085682,98.0088,265.4571,120.7664,239.4393,0,U,40118,999,64413,.8247609E-4,.585E-5,0
YAOGAN-21,2014-053A,2026-07-20T06:19:55.997184,15.26797414,.00070756,97.1454,240.0858,349.9574,10.1523,0,U,40143,999,66000,.12131884E-3,.3127E-4,0
YAOGAN-22,2014-063A,2026-07-20T00:57:13.005504,13.15531723,.00069019,100.7769,352.8645,115.2124,244.9703,0,U,40275,999,56413,.13033303E-4,-.42E-6,0
ASNARO,2014-070A,2026-07-20T05:09:52.166304,15.19421837,.00045611,97.3435,276.4402,76.6851,283.4892,0,U,40298,999,64902,.24628049E-3,.5151E-4,0
YAOGAN-24,2014-072A,2026-07-20T07:07:29.294976,14.76122971,.00150217,98.1536,338.9178,153.7082,206.4893,0,U,40310,999,62860,.87753333E-4,.554E-5,0
CBERS 4,2014-079A,2026-07-20T06:50:18.849696,14.35516400,.00005754,98.3509,257.0752,68.1927,291.9320,0,U,40336,999,60870,-.26851809E-4,-.119E-5,0
YAOGAN-26,2014-088A,2026-07-20T07:04:32.633760,15.48577867,.00011439,97.0657,200.7595,304.2559,55.8584,0,U,40362,999,64282,.28750211E-3,.1525E-3,0
SMAP,2015-003A,2026-07-20T05:48:38.297088,14.63391560,.00016302,98.1286,207.8700,93.0707,267.0682,0,U,40376,999,61245,.47639218E-4,.199E-5,0
KOMPSAT-3A,2015-014A,2026-07-20T06:10:39.656352,15.55635093,.00555171,97.6903,195.0808,57.7653,302.8964,0,U,40536,999,62695,.29670406E-3,.21735E-3,0
SENTINEL-2A,2015-028A,2026-07-20T06:59:56.823360,14.30814761,.0001304,98.5669,275.6716,97.2207,262.9124,0,U,40697,999,57846,-.56249837E-4,-.191E-5,0
GAOFEN-8,2015-030A,2026-07-20T06:43:15.953664,15.47059509,.00097914,97.6901,36.6630,79.7968,280.4385,0,U,40701,999,61656,.20022766E-3,.10048E-3,0
CARBONITE 1 (CBNT-1),2015-032D,2026-07-20T07:08:04.350048,14.83673367,.00143059,97.6528,17.9815,179.8971,180.2249,0,U,40718,999,59425,.28262306E-4,.183E-5,0
YAOGAN-27,2015-040A,2026-07-20T05:59:28.915008,13.16072392,.00087233,100.1179,186.2006,134.0252,226.1582,0,U,40878,999,52201,.10493384E-2,.356E-5,0
GAOFEN-9 01,2015-047A,2026-07-20T07:52:50.331648,14.82940760,.00281079,97.6263,235.5156,34.2605,326.0415,0,U,40894,999,58510,.68250029E-4,.506E-5,0
YAOGAN-28,2015-064A,2026-07-20T08:04:27.181344,15.27797583,.00119695,97.3116,338.9393,77.2584,282.9993,0,U,41026,999,59574,.14222566E-3,.3795E-4,0
YAOGAN-29,2015-069A,2026-07-20T07:18:16.001568,14.83108151,.00002321,98.0017,229.9877,6.1208,354.0008,0,U,41038,999,57553,.2753984E-4,.17E-5,0
KENT RIDGE 1,2015-077B,2026-07-19T20:07:56.265024,15.23298386,.00082697,14.9808,23.1228,340.3146,19.6856,0,U,41167,999,58608,.63188931E-4,.2305E-4,0
GAOFEN-4,2015-083A,2026-07-20T06:47:15.871776,1.00270897,.00041678,0.4407,83.8785,121.8602,299.8332,0,U,41194,999,3886,0,-.337E-5,0
JASON-3,2016-002A,2026-07-20T05:53:28.658112,12.87628872,.00081368,66.0416,56.3340,270.5039,89.5047,0,U,41240,999,49150,.17930369E-4,-.58E-6,0
SENTINEL-3A,2016-011A,2026-07-20T05:56:42.616608,14.26740662,.0001313,98.6233,268.1538,89.0056,271.1275,0,U,41335,999,54277,.3368566E-4,.38E-6,0
ZIYUAN 3-02 (ZY 3-02),2016-033A,2026-07-20T06:34:18.989760,15.21462938,.0014631,97.3819,276.4122,167.5542,192.6059,0,U,41556,999,56301,.12999469E-3,.286E-4,0
CARTOSAT-2C,2016-040A,2026-07-20T07:43:35.299776,15.19284758,.00090739,97.4456,260.8408,29.4328,330.7416,0,U,41599,999,55874,.10648291E-3,.218E-4,0
