ALOS-2                  
1 39766U 14029A   26201.27927149  .00000133  00000+0  24681-4 0  9990
2 39766  97.9226 297.9703 0001579  92.0577 268.0816 14.79471989656475
KAZEOSAT 2              
1 40010U 14033A   26201.30356675  .00000388  00000+0  50768-4 0  9990
2 40010  97.5393  39.1636 0007776 200.6805 159.4097 14.85503112653873
HODOYOSHI-4             
1 40011U 14033B   26201.31715617  .00000331  00000+0  41381-4 0  9996
2 40011  97.5463  24.5428 0023106 192.2051 167.8610 14.88193330653732
DEIMOS-2                
1 40013U 14033D   26201.27443500  .00001455  00000+0  14226-3 0  9997
2 40013  97.5780  74.5942 0001474 105.5922 254.5462 14.93807009642660
HODOYOSHI-3             
1 40015U 14033F   26201.19262767  .00000541  00000+0  68307-4 0  9999
2 40015  97.6452   2.9119 0031429 244.6605 115.1355 14.85443217652523
SPOT 7                  
1 40053U 14034A   26201.32995667 -.00000105  00000+0 -12126-4 0  9995
2 40053  98.0606 262.9649 0001627  95.4986 264.6401 14.60982484641974
SKYSAT-B                
1 40072U 14037D   26201.14096470  .00000569  00000+0  68554-4 0  9991
2 40072  98.3857 161.9901 0005938 157.5218 202.6259 14.88098478650864
WORLDVIEW-3 (WV-3)      
1 40115U 14048A   26201.25053757  .00000412  00000+0  54441-4 0  9991
2 40115  97.8552 275.6254 0001669 148.6953 211.4362 14.85068618646819
GAOFEN-2                
1 40118U 14049A   26201.28412140  .00000585  00000+0  82476-4 0  9993
2 40118  98.0088 265.4571 0008568 120.7664 239.4393 14.80932344644131
YAOGAN-21               
1 40143U 14053A   26201.26384256  .00003127  00000+0  12132-3 0  9996
2 40143  97.1454 240.0858 0007075 349.9574  10.1523 15.26797414660001
YAOGAN-22               
1 40275U 14063A   26201.03973386 -.00000042  00000+0  13033-4 0  9992
2 40275 100.7769 352.8645 0006901 115.2124 244.9703 13.15531723564134
ASNARO                  
1 40298U 14070A   26201.21518711  .00005151  00000+0  24628-3 0  9998
2 40298  97.3435 276.4402 0004561  76.6851 283.4892 15.19421837649028
YAOGAN-24               
1 40310U 14072A   26201.29686684  .00000554  00000+0  87753-4 0  9999
2 40310  98.1536 338.9178 0015021 153.7082 206.4893 14.76122971628600
CBERS 4                 
1 40336U 14079A   26201.28494039 -.00000119  00000+0 -26852-4 0  9996
2 40336  98.3509 257.0752 0000575  68.1927 291.9320 14.35516400608706
YAOGAN-26               
1 40362U 14088A   26201.29482215  .00015250  00000+0  28750-3 0  9997
2 40362  97.0657 200.7595 0001143 304.2559  55.8584 15.48577867642821
SMAP                    
1 40376U 15003A   26201.24210992  .00000199  00000+0  47639-4 0  9990
2 40376  98.1286 207.8700 0001630  93.0707 267.0682 14.63391560612453
KOMPSAT-3A              
1 40536U 15014A   26201.25740343  .00021735  00000+0  29670-3 0  9992
2 40536  97.6903 195.0808 0055517  57.7653 302.8964 15.55635093626953
SENTINEL-2A             
1 40697U 15028A   26201.29162990 -.00000191  00000+0 -56250-4 0  9995
2 40697  98.5669 275.6716 0001304  97.2207 262.9124 14.30814761578461
GAOFEN-8                
1 40701U 15030A   26201.28004576  .00010048  00000+0  20023-3 0  9996
2 40701  97.6901  36.6630 0009791  79.7968 280.4385 15.47059509616561
CARBONITE 1 (CBNT-1)    
1 40718U 15032D   26201.29727257  .00000183  00000+0  28262-4 0  9998
2 40718  97.6528  17.9815 0014305 179.8971 180.2249 14.83673367594254
YAOGAN-27               
1 40878U 15040A   26201.24964022  .00000356  00000+0  10493-2 0  9999
2 40878 100.1179 186.2006 0008723 134.0252 226.1582 13.16072392522018
GAOFEN-9 01             
1 40894U 15047A   26201.32836032  .00000506  00000+0  68250-4 0  9995
2 40894  97.6263 235.5156 0028107  34.2605 326.0415 14.82940760585106
YAOGAN-28               
1 41026U 15064A   26201.33642571  .00003795  00000+0  14223-3 0  9999
2 41026  97.3116 338.9393 0011969  77.2584 282.9993 15.27797583595745
YAOGAN-29               
1 41038U 15069A   26201.30435187  .00000170  00000+0  27540-4 0  9998
2 41038  98.0017 229.9877 0000232   6.1208 354.0008 14.83108151575538
KENT RIDGE 1            
1 41167U 15077B   26200.83884566  .00002305  00000+0  63189-4 0  9997
2 41167  14.9808  23.1228 0008269 340.3146  19.6856 15.23298386586084
GAOFEN-4                
1 41194U 15083A   26201.28282259 -.00000337  00000+0  00000+0 0  9997
2 41194   0.4407  83.8785 0004167 121.8602 299.8332  1.00270897 38868
JASON-3                 
1 41240U 16002A   26201.24547058 -.00000058  00000+0  17930-4 0  9993
2 41240  66.0416  56.3340 0008136 270.5039  89.5047 12.87628872491504
SENTINEL-3A             
1 41335U 16011A   26201.24771547  .00000038  00000+0  33686-4 0  9993
2 41335  98.6233 268.1538 0001313  89.0056 271.1275 14.26740662542776
ZIYUAN 3-02 (ZY 3-02)   
1 41556U 16033A   26201.27383090  .00002860  00000+0  12999-3 0  9995
2 41556  97.3819 276.4122 0014631 167.5542 192.6059 15.21462938563017
CARTOSAT-2C             
1 41599U 16040A   26201.32193634  .00002180  00000+0  10648-3 0  9993
2 41599  97.4456 260.8408 0009073  29.4328 330.7416 15.19284758558743
